GLOBALSTAR M094 [+]     
1 39074U 13005C   23318.83708028 -.00000092  00000+0  65685-4 0  9990
2 39074  51.9934 149.1125 0001232  90.6885 269.4123 12.62269929499101
GLOBALSTAR M096 [+]     
1 39075U 13005D   23318.37520458 -.00000063  00000+0  22775-3 0  9999
2 39075  52.0063 198.5806 0001302  73.2072 286.8938 12.62266227497949
GLOBALSTAR M078 [+]     
1 39076U 13005E   23318.26945960 -.00000094  00000+0  52759-4 0  9997
2 39076  51.9877 284.2003 0001121   1.4087 358.6782 12.62263105496554
GLOBALSTAR M095 [+]     
1 39077U 13005F   23318.29598321 -.00000096  00000+0  42256-4 0  9999
2 39077  51.9802 281.6057 0001123  30.8590 329.2342 12.62270613496413
GLOBALSTAR M087 [+]     
1 52888U 22064A   23318.53211124 -.00000077  00000+0  97869-4 0  9998
2 52888  51.9757 240.3502 0009245 172.8064 187.2971 13.37557886 68665
